[{"OBJECT_NAME":"DMSP 5D-3 F16 (USA 172)","OBJECT_ID":"2003-048A","EPOCH":"2026-03-28T20:45:09.000000","MEAN_MOTION":14.14469451,"ECCENTRICITY":0.0007375,"INCLINATION":98.9969,"RA_OF_ASC_NODE":111.1353,"ARG_OF_PERICENTER":23.5093,"MEAN_ANOMALY":327.9883,"EPHEMERIS_TYPE":0,"CLASSIFICATION_TYPE":"U","NORAD_CAT_ID":28054,"ELEMENT_SET_NO":999,"REV_AT_EPOCH":15812,"BSTAR":0.00010637,"MEAN_MOTION_DOT":1.58e-6,"MEAN_MOTION_DDOT":0},{"OBJECT_NAME":"METEOSAT-9 (MSG-2)","OBJECT_ID":"2005-049B","EPOCH":"2026-03-28T13:17:21.413184","MEAN_MOTION":1.00272852,"ECCENTRICITY":1.89e-5,"INCLINATION":9.1814,"RA_OF_ASC_NODE":54.9434,"ARG_OF_PERICENTER":125.5968,"MEAN_ANOMALY":250.3933,"EPHEMERIS_TYPE":0,"CLASSIFICATION_TYPE":"U","NORAD_CAT_ID":28912,"ELEMENT_SET_NO":999,"REV_AT_EPOCH":619,"BSTAR":0,"MEAN_MOTION_DOT":1.11e-6,"MEAN_MOTION_DDOT":0},{"OBJECT_NAME":"DMSP 5D-3 F17 (USA 191)","OBJECT_ID":"2006-050A","EPOCH":"2026-03-28T20:11:11.410656","MEAN_MOTION":14.14972443,"ECCENTRICITY":0.0008949,"INCLINATION":98.7409,"RA_OF_ASC_NODE":96.0478,"ARG_OF_PERICENTER":287.7449,"MEAN_ANOMALY":72.2747,"EPHEMERIS_TYPE":0,"CLASSIFICATION_TYPE":"U","NORAD_CAT_ID":29522,"ELEMENT_SET_NO":999,"REV_AT_EPOCH":106,"BSTAR":0.00012616,"MEAN_MOTION_DOT":2.01e-6,"MEAN_MOTION_DDOT":0},{"OBJECT_NAME":"FENGYUN 3A","OBJECT_ID":"2008-026A","EPOCH":"2026-03-28T20:04:37.659072","MEAN_MOTION":14.19552128,"ECCENTRICITY":0.0008861,"INCLINATION":98.6822,"RA_OF_ASC_NODE":30.2008,"ARG_OF_PERICENTER":6.9013,"MEAN_ANOMALY":353.2283,"EPHEMERIS_TYPE":0,"CLASSIFICATION_TYPE":"U","NORAD_CAT_ID":32958,"ELEMENT_SET_NO":999,"REV_AT_EPOCH":92400,"BSTAR":6.8061e-5,"MEAN_MOTION_DOT":1.0e-6,"MEAN_MOTION_DDOT":0},{"OBJECT_NAME":"GOES 14","OBJECT_ID":"2009-033A","EPOCH":"2026-03-28T19:05:48.002208","MEAN_MOTION":1.00108649,"ECCENTRICITY":0.0001717,"INCLINATION":1.483,"RA_OF_ASC_NODE":84.0229,"ARG_OF_PERICENTER":277.8076,"MEAN_ANOMALY":297.9517,"EPHEMERIS_TYPE":0,"CLASSIFICATION_TYPE":"U","NORAD_CAT_ID":35491,"ELEMENT_SET_NO":999,"REV_AT_EPOCH":578,"BSTAR":0,"MEAN_MOTION_DOT":5.3e-7,"MEAN_MOTION_DDOT":0},{"OBJECT_NAME":"DMSP 5D-3 F18 (USA 210)","OBJECT_ID":"2009-057A","EPOCH":"2026-03-28T21:03:06.765696","MEAN_MOTION":14.14848205,"ECCENTRICITY":0.0012039,"INCLINATION":98.8989,"RA_OF_ASC_NODE":68.8459,"ARG_OF_PERICENTER":116.388,"MEAN_ANOMALY":243.8531,"EPHEMERIS_TYPE":0,"CLASSIFICATION_TYPE":"U","NORAD_CAT_ID":35951,"ELEMENT_SET_NO":999,"REV_AT_EPOCH":84823,"BSTAR":0.00017482,"MEAN_MOTION_DOT":2.93e-6,"MEAN_MOTION_DDOT":0},{"OBJECT_NAME":"EWS-G2 (GOES 15)","OBJECT_ID":"2010-008A","EPOCH":"2026-03-28T16:04:45.833952","MEAN_MOTION":1.00270308,"ECCENTRICITY":0.0002661,"INCLINATION":1.0678,"RA_OF_ASC_NODE":84.4611,"ARG_OF_PERICENTER":19.3681,"MEAN_ANOMALY":26.743,"EPHEMERIS_TYPE":0,"CLASSIFICATION_TYPE":"U","NORAD_CAT_ID":36411,"ELEMENT_SET_NO":999,"REV_AT_EPOCH":5883,"BSTAR":0,"MEAN_MOTION_DOT":3.0e-8,"MEAN_MOTION_DDOT":0},{"OBJECT_NAME":"COMS 1","OBJECT_ID":"2010-032A","EPOCH":"2026-03-28T20:31:40.056672","MEAN_MOTION":1.00272717,"ECCENTRICITY":0.0001054,"INCLINATION":4.5984,"RA_OF_ASC_NODE":76.4793,"ARG_OF_PERICENTER":282.4878,"MEAN_ANOMALY":263.3521,"EPHEMERIS_TYPE":0,"CLASSIFICATION_TYPE":"U","NORAD_CAT_ID":36744,"ELEMENT_SET_NO":999,"REV_AT_EPOCH":5028,"BSTAR":0,"MEAN_MOTION_DOT":-3.6e-6,"MEAN_MOTION_DDOT":0},{"OBJECT_NAME":"FENGYUN 3B","OBJECT_ID":"2010-059A","EPOCH":"2026-03-28T19:56:29.916384","MEAN_MOTION":14.14823031,"ECCENTRICITY":0.0022949,"INCLINATION":98.9732,"RA_OF_ASC_NODE":133.4706,"ARG_OF_PERICENTER":56.1949,"MEAN_ANOMALY":32.7634,"EPHEMERIS_TYPE":0,"CLASSIFICATION_TYPE":"U","NORAD_CAT_ID":37214,"ELEMENT_SET_NO":999,"REV_AT_EPOCH":79606,"BSTAR":0.00011903,"MEAN_MOTION_DOT":1.85e-6,"MEAN_MOTION_DDOT":0},{"OBJECT_NAME":"SUOMI NPP","OBJECT_ID":"2011-061A","EPOCH":"2026-03-28T20:16:42.556800","MEAN_MOTION":14.19498523,"ECCENTRICITY":0.0001668,"INCLINATION":98.7893,"RA_OF_ASC_NODE":29.2975,"ARG_OF_PERICENTER":159.34,"MEAN_ANOMALY":200.7844,"EPHEMERIS_TYPE":0,"CLASSIFICATION_TYPE":"U","NORAD_CAT_ID":37849,"ELEMENT_SET_NO":999,"REV_AT_EPOCH":74704,"BSTAR":6.1326e-5,"MEAN_MOTION_DOT":8.5e-7,"MEAN_MOTION_DDOT":0},{"OBJECT_NAME":"METEOSAT-10 (MSG-3)","OBJECT_ID":"2012-035B","EPOCH":"2026-03-28T18:12:30.612096","MEAN_MOTION":1.00271341,"ECCENTRICITY":0.0002458,"INCLINATION":4.4824,"RA_OF_ASC_NODE":61.3529,"ARG_OF_PERICENTER":284.808,"MEAN_ANOMALY":113.1895,"EPHEMERIS_TYPE":0,"CLASSIFICATION_TYPE":"U","NORAD_CAT_ID":38552,"ELEMENT_SET_NO":999,"REV_AT_EPOCH":5005,"BSTAR":0,"MEAN_MOTION_DOT":-2.3e-7,"MEAN_MOTION_DDOT":0},{"OBJECT_NAME":"METOP-B","OBJECT_ID":"2012-049A","EPOCH":"2026-03-28T19:15:35.258688","MEAN_MOTION":14.21424433,"ECCENTRICITY":0.0002039,"INCLINATION":98.66,"RA_OF_ASC_NODE":140.8723,"ARG_OF_PERICENTER":189.9198,"MEAN_ANOMALY":170.194,"EPHEMERIS_TYPE":0,"CLASSIFICATION_TYPE":"U","NORAD_CAT_ID":38771,"ELEMENT_SET_NO":999,"REV_AT_EPOCH":70184,"BSTAR":7.1964e-5,"MEAN_MOTION_DOT":1.14e-6,"MEAN_MOTION_DDOT":0},{"OBJECT_NAME":"INSAT-3D","OBJECT_ID":"2013-038B","EPOCH":"2026-03-28T20:32:02.520672","MEAN_MOTION":1.00268978,"ECCENTRICITY":0.0001584,"INCLINATION":1.7191,"RA_OF_ASC_NODE":83.5497,"ARG_OF_PERICENTER":246.2248,"MEAN_ANOMALY":294.0421,"EPHEMERIS_TYPE":0,"CLASSIFICATION_TYPE":"U","NORAD_CAT_ID":39216,"ELEMENT_SET_NO":999,"REV_AT_EPOCH":4627,"BSTAR":0,"MEAN_MOTION_DOT":-3.57e-6,"MEAN_MOTION_DDOT":0},{"OBJECT_NAME":"FENGYUN 3C","OBJECT_ID":"2013-052A","EPOCH":"2026-03-28T21:35:04.953696","MEAN_MOTION":14.15734921,"ECCENTRICITY":0.0013516,"INCLINATION":98.4924,"RA_OF_ASC_NODE":65.49,"ARG_OF_PERICENTER":253.5478,"MEAN_ANOMALY":106.4212,"EPHEMERIS_TYPE":0,"CLASSIFICATION_TYPE":"U","NORAD_CAT_ID":39260,"ELEMENT_SET_NO":999,"REV_AT_EPOCH":64720,"BSTAR":8.9596e-5,"MEAN_MOTION_DOT":1.34e-6,"MEAN_MOTION_DDOT":0},{"OBJECT_NAME":"METEOR-M 2","OBJECT_ID":"2014-037A","EPOCH":"2026-03-28T21:36:20.899296","MEAN_MOTION":14.21436668,"ECCENTRICITY":0.0004552,"INCLINATION":98.5055,"RA_OF_ASC_NODE":66.511,"ARG_OF_PERICENTER":272.0285,"MEAN_ANOMALY":88.0372,"EPHEMERIS_TYPE":0,"CLASSIFICATION_TYPE":"U","NORAD_CAT_ID":40069,"ELEMENT_SET_NO":999,"REV_AT_EPOCH":60791,"BSTAR":7.3188e-5,"MEAN_MOTION_DOT":1.18e-6,"MEAN_MOTION_DDOT":0},{"OBJECT_NAME":"HIMAWARI-8","OBJECT_ID":"2014-060A","EPOCH":"2026-03-28T20:35:17.210112","MEAN_MOTION":1.00270466,"ECCENTRICITY":7.8e-5,"INCLINATION":0.0222,"RA_OF_ASC_NODE":111.0728,"ARG_OF_PERICENTER":226.3757,"MEAN_ANOMALY":298.2974,"EPHEMERIS_TYPE":0,"CLASSIFICATION_TYPE":"U","NORAD_CAT_ID":40267,"ELEMENT_SET_NO":999,"REV_AT_EPOCH":4195,"BSTAR":0,"MEAN_MOTION_DOT":-2.95e-6,"MEAN_MOTION_DDOT":0},{"OBJECT_NAME":"FENGYUN 2G","OBJECT_ID":"2014-090A","EPOCH":"2026-03-28T20:23:33.335232","MEAN_MOTION":1.00263574,"ECCENTRICITY":0.0001787,"INCLINATION":5.4364,"RA_OF_ASC_NODE":73.7716,"ARG_OF_PERICENTER":148.1043,"MEAN_ANOMALY":9.7239,"EPHEMERIS_TYPE":0,"CLASSIFICATION_TYPE":"U","NORAD_CAT_ID":40367,"ELEMENT_SET_NO":999,"REV_AT_EPOCH":4119,"BSTAR":0,"MEAN_MOTION_DOT":-3.15e-6,"MEAN_MOTION_DDOT":0}]
