DMSP 5D-3 F16 (USA 172) 
1 28054U 03048A   26087.86468750  .00000158  00000+0  10637-3 0  9994
2 28054  98.9969 111.1353 0007375  23.5093 327.9883 14.14469451158126
METEOSAT-9 (MSG-2)      
1 28912U 05049B   26087.55372006  .00000111  00000+0  00000+0 0  9992
2 28912   9.1814  54.9434 0000189 125.5968 250.3933  1.00272852  6198
DMSP 5D-3 F17 (USA 191) 
1 29522U 06050A   26087.84110429  .00000201  00000+0  12616-3 0  9994
2 29522  98.7409  96.0478 0008949 287.7449  72.2747 14.14972443  1069
FENGYUN 3A              
1 32958U 08026A   26087.83654698  .00000100  00000+0  68061-4 0  9990
2 32958  98.6822  30.2008 0008861   6.9013 353.2283 14.19552128924008
GOES 14                 
1 35491U 09033A   26087.79569447  .00000053  00000+0  00000+0 0  9997
2 35491   1.4830  84.0229 0001717 277.8076 297.9517  1.00108649  5787
DMSP 5D-3 F18 (USA 210) 
1 35951U 09057A   26087.87716164  .00000293  00000+0  17482-3 0  9995
2 35951  98.8989  68.8459 0012039 116.3880 243.8531 14.14848205848236
EWS-G2 (GOES 15)        
1 36411U 10008A   26087.66997493  .00000003  00000+0  00000+0 0  9991
2 36411   1.0678  84.4611 0002661  19.3681  26.7430  1.00270308 58833
COMS 1                  
1 36744U 10032A   26087.85532473 -.00000360  00000+0  00000+0 0  9998
2 36744   4.5984  76.4793 0001054 282.4878 263.3521  1.00272717 50285
FENGYUN 3B              
1 37214U 10059A   26087.83090181  .00000185  00000+0  11903-3 0  9995
2 37214  98.9732 133.4706 0022949  56.1949  32.7634 14.14823031796061
SUOMI NPP               
1 37849U 11061A   26087.84493700  .00000085  00000+0  61326-4 0  9992
2 37849  98.7893  29.2975 0001668 159.3400 200.7844 14.19498523747047
METEOSAT-10 (MSG-3)     
1 38552U 12035B   26087.75868764 -.00000023  00000+0  00000+0 0  9992
2 38552   4.4824  61.3529 0002458 284.8080 113.1895  1.00271341 50059
METOP-B                 
1 38771U 12049A   26087.80249142  .00000114  00000+0  71964-4 0  9991
2 38771  98.6600 140.8723 0002039 189.9198 170.1940 14.21424433701841
INSAT-3D                
1 39216U 13038B   26087.85558473 -.00000357  00000+0  00000+0 0  9998
2 39216   1.7191  83.5497 0001584 246.2248 294.0421  1.00268978 46276
FENGYUN 3C              
1 39260U 13052A   26087.89936289  .00000134  00000+0  89596-4 0  9996
2 39260  98.4924  65.4900 0013516 253.5478 106.4212 14.15734921647204
METEOR-M 2              
1 40069U 14037A   26087.90024189  .00000118  00000+0  73188-4 0  9990
2 40069  98.5055  66.5110 0004552 272.0285  88.0372 14.21436668607916
HIMAWARI-8              
1 40267U 14060A   26087.85783808 -.00000295  00000+0  00000+0 0  9995
2 40267   0.0222 111.0728 0000780 226.3757 298.2974  1.00270466 41950
FENGYUN 2G              
1 40367U 14090A   26087.84969138 -.00000315  00000+0  00000+0 0  9993
2 40367   5.4364  73.7716 0001787 148.1043   9.7239  1.00263574 41192
